[{"OBJECT_NAME":"YAOGAN-30 10A","OBJECT_ID":"2021-055A","EPOCH":"2026-03-09T23:48:28.291104","MEAN_MOTION":15.02193247,"ECCENTRICITY":0.0004983,"INCLINATION":34.9965,"RA_OF_ASC_NODE":36.5937,"ARG_OF_PERICENTER":279.793,"MEAN_ANOMALY":80.2215,"EPHEMERIS_TYPE":0,"CLASSIFICATION_TYPE":"U","NORAD_CAT_ID":48860,"ELEMENT_SET_NO":999,"REV_AT_EPOCH":25825,"BSTAR":0.00036861198,"MEAN_MOTION_DOT":4.929e-5,"MEAN_MOTION_DDOT":0},{"OBJECT_NAME":"STARLINK-6141","OBJECT_ID":"2023-090M","EPOCH":"2026-03-08T23:22:47.386848","MEAN_MOTION":15.02533141,"ECCENTRICITY":0.00012016,"INCLINATION":43.0026,"RA_OF_ASC_NODE":278.7203,"ARG_OF_PERICENTER":259.6416,"MEAN_ANOMALY":100.4291,"EPHEMERIS_TYPE":0,"CLASSIFICATION_TYPE":"U","NORAD_CAT_ID":57112,"ELEMENT_SET_NO":999,"REV_AT_EPOCH":15030,"BSTAR":5.3276378e-5,"MEAN_MOTION_DOT":5.16e-6,"MEAN_MOTION_DDOT":0}]
